[{"OBJECT_NAME":"KUIPER-00014","OBJECT_ID":"2025-088G","EPOCH":"2026-03-09T12:14:38.382144","MEAN_MOTION":14.79898503,"ECCENTRICITY":3.348e-5,"INCLINATION":51.9,"RA_OF_ASC_NODE":109.8608,"ARG_OF_PERICENTER":71.1375,"MEAN_ANOMALY":288.9623,"EPHEMERIS_TYPE":0,"CLASSIFICATION_TYPE":"U","NORAD_CAT_ID":63730,"ELEMENT_SET_NO":999,"REV_AT_EPOCH":4734,"BSTAR":0.0006834098,"MEAN_MOTION_DOT":4.988e-5,"MEAN_MOTION_DDOT":0},{"OBJECT_NAME":"NOAA 16 DEB","OBJECT_ID":"2000-055DJ","EPOCH":"2026-03-09T07:53:23.344224","MEAN_MOTION":14.77401942,"ECCENTRICITY":0.00126392,"INCLINATION":98.9556,"RA_OF_ASC_NODE":267.983,"ARG_OF_PERICENTER":354.4943,"MEAN_ANOMALY":5.6124,"EPHEMERIS_TYPE":0,"CLASSIFICATION_TYPE":"U","NORAD_CAT_ID":41205,"ELEMENT_SET_NO":999,"REV_AT_EPOCH":53230,"BSTAR":0.0051046881,"MEAN_MOTION_DOT":0.00036493,"MEAN_MOTION_DDOT":0}]
